CCSDS_OMM_VERS = 2.0
CREATION_DATE  = 
ORIGINATOR     = 

OBJECT_NAME    = XRISM
OBJECT_ID      = 2023-137A
CENTER_NAME    = EARTH
REF_FRAME      = TEME
TIME_SYSTEM    = UTC
MEAN_ELEMENT_THEORY = SGP/SGP4

EPOCH          = 2026-03-21T18:58:52.978944
MEAN_MOTION    = 15.11629018
ECCENTRICITY   = .00079782
INCLINATION    = 31.0012
RA_OF_ASC_NODE = 205.3819
ARG_OF_PERICENTER = 160.8711
MEAN_ANOMALY   = 199.2228

EPHEMERIS_TYPE = 0
CLASSIFICATION_TYPE = U
NORAD_CAT_ID   = 57800
ELEMENT_SET_NO = 999
REV_AT_EPOCH   = 13962
BSTAR          = .37471928E-3
MEAN_MOTION_DOT = .6629E-4
MEAN_MOTION_DDOT = 0

CCSDS_OMM_VERS = 2.0
CREATION_DATE  = 
ORIGINATOR     = 

OBJECT_NAME    = ACS3
OBJECT_ID      = 2024-077B
CENTER_NAME    = EARTH
REF_FRAME      = TEME
TIME_SYSTEM    = UTC
MEAN_ELEMENT_THEORY = SGP/SGP4

EPOCH          = 2026-03-21T19:23:49.069248
MEAN_MOTION    = 13.90163363
ECCENTRICITY   = .0069447
INCLINATION    = 97.2006
RA_OF_ASC_NODE = 19.1971
ARG_OF_PERICENTER = 48.2458
MEAN_ANOMALY   = 312.4615

EPHEMERIS_TYPE = 0
CLASSIFICATION_TYPE = U
NORAD_CAT_ID   = 59588
ELEMENT_SET_NO = 999
REV_AT_EPOCH   = 9588
BSTAR          = .24218181E-1
MEAN_MOTION_DOT = .30616E-3
MEAN_MOTION_DDOT = 0

CCSDS_OMM_VERS = 2.0
CREATION_DATE  = 
ORIGINATOR     = 

OBJECT_NAME    = SZ-21 MODULE
OBJECT_ID      = 2025-246C
CENTER_NAME    = EARTH
REF_FRAME      = TEME
TIME_SYSTEM    = UTC
MEAN_ELEMENT_THEORY = SGP/SGP4

EPOCH          = 2026-03-21T20:22:02.555616
MEAN_MOTION    = 15.69453239
ECCENTRICITY   = .00005056
INCLINATION    = 41.4733
RA_OF_ASC_NODE = 128.4589
ARG_OF_PERICENTER = 233.4003
MEAN_ANOMALY   = 126.6793

EPHEMERIS_TYPE = 0
CLASSIFICATION_TYPE = U
NORAD_CAT_ID   = 66515
ELEMENT_SET_NO = 999
REV_AT_EPOCH   = 1998
BSTAR          = .36504589E-3
MEAN_MOTION_DOT = .44117E-3
MEAN_MOTION_DDOT = 0

